[{"OBJECT_NAME":"OBJECT F","OBJECT_ID":"2023-072F","EPOCH":"2026-03-09T23:31:37.259904","MEAN_MOTION":15.29470958,"ECCENTRICITY":0.00062878,"INCLINATION":97.5173,"RA_OF_ASC_NODE":265.798,"ARG_OF_PERICENTER":19.0017,"MEAN_ANOMALY":341.1456,"EPHEMERIS_TYPE":0,"CLASSIFICATION_TYPE":"U","NORAD_CAT_ID":56748,"ELEMENT_SET_NO":999,"REV_AT_EPOCH":15460,"BSTAR":0.00043416252,"MEAN_MOTION_DOT":0.00012341,"MEAN_MOTION_DDOT":0},{"OBJECT_NAME":"STARLINK-34849","OBJECT_ID":"2025-232A","EPOCH":"2026-03-09T19:39:11.358144","MEAN_MOTION":15.30175686,"ECCENTRICITY":0.0001522,"INCLINATION":53.159,"RA_OF_ASC_NODE":103.4335,"ARG_OF_PERICENTER":81.5244,"MEAN_ANOMALY":278.593,"EPHEMERIS_TYPE":0,"CLASSIFICATION_TYPE":"U","NORAD_CAT_ID":66005,"ELEMENT_SET_NO":999,"REV_AT_EPOCH":2344,"BSTAR":0.00075784563,"MEAN_MOTION_DOT":0.00022136,"MEAN_MOTION_DDOT":0}]
